{"type": "FeatureCollection", "features": [ {"type": "Feature", "properties": {"norad_id": 41785, "name": "ALSAT 1B", "group": "resource", "lat": -79.08939342099038, "lon": 50.13368533313986, "alt_km": 669.165915364917, "timestamp": "2025-12-19T10:50:00.849165+00:00", "meta": {"OBJECT_NAME": "ALSAT 1B", "OBJECT_ID": "2016-059C", "EPOCH": "2025-12-18T23:47:17.575296", "MEAN_MOTION": 14.7208096, "ECCENTRICITY": 0.00107913, "INCLINATION": 97.7809, "RA_OF_ASC_NODE": 4.5116, "ARG_OF_PERICENTER": 85.7928, "MEAN_ANOMALY": 274.4513, "EPHEMERIS_TYPE": 0, "CLASSIFICATION_TYPE": "U", "NORAD_CAT_ID": 41785, "ELEMENT_SET_NO": 999, "REV_AT_EPOCH": 49406, "BSTAR": 3.5248291e-05, "MEAN_MOTION_DOT": 1.75e-06, "MEAN_MOTION_DDOT": 0}, "tle": {"line1": "1 41785U 16059C   25352.99117564  .00000175  00000+0  35248-4 0  9993", "line2": "2 41785  97.7809   4.5116 0010791  85.7928 274.4513 14.72080960494067"}}, "geometry": {"type": "Point", "coordinates": [50.13368533313986, -79.08939342099038]}}, {"type": "Feature", "properties": {"norad_id": 41787, "name": "PATHFINDER 1", "group": "resource", "lat": -60.75361358199227, "lon": 161.71805339018437, "alt_km": 697.8244772426797, "timestamp": "2025-12-19T10:50:00.849175+00:00", "meta": {"OBJECT_NAME": "PATHFINDER 1", "OBJECT_ID": "2016-059E", "EPOCH": "2025-12-18T22:16:49.999872", "MEAN_MOTION": 14.67331687, "ECCENTRICITY": 0.00298878, "INCLINATION": 97.8136, "RA_OF_ASC_NODE": 355.4148, "ARG_OF_PERICENTER": 62.3786, "MEAN_ANOMALY": 298.0448, "EPHEMERIS_TYPE": 0, "CLASSIFICATION_TYPE": "U", "NORAD_CAT_ID": 41787, "ELEMENT_SET_NO": 999, "REV_AT_EPOCH": 49327, "BSTAR": 0.00011647023, "MEAN_MOTION_DOT": 6.15e-06, "MEAN_MOTION_DDOT": 0}, "tle": {"line1": "1 41787U 16059E   25352.92835648  .00000615  00000+0  11647-3 0  9993", "line2": "2 41787  97.8136 355.4148 0029887  62.3786 298.0448 14.67331687493275"}}, "geometry": {"type": "Point", "coordinates": [161.71805339018437, -60.75361358199227]}}, {"type": "Feature", "properties": {"norad_id": 41790, "name": "SCATSAT 1", "group": "resource", "lat": 24.299869832442784, "lon": -126.08676510141923, "alt_km": 605.7094194402089, "timestamp": "2025-12-19T10:50:00.849186+00:00", "meta": {"OBJECT_NAME": "SCATSAT 1", "OBJECT_ID": "2016-059H", "EPOCH": "2025-12-18T17:54:03.536928", "MEAN_MOTION": 14.78955761, "ECCENTRICITY": 0.00564258, "INCLINATION": 98.1457, "RA_OF_ASC_NODE": 49.491, "ARG_OF_PERICENTER": 109.0385, "MEAN_ANOMALY": 251.6949, "EPHEMERIS_TYPE": 0, "CLASSIFICATION_TYPE": "U", "NORAD_CAT_ID": 41790, "ELEMENT_SET_NO": 999, "REV_AT_EPOCH": 7491, "BSTAR": 0.00015739721, "MEAN_MOTION_DOT": 1.136e-05, "MEAN_MOTION_DDOT": 0}, "tle": {"line1": "1 41790U 16059H   25352.74587427  .00001136  00000+0  15740-3 0  9993", "line2": "2 41790  98.1457  49.4910 0056425 109.0385 251.6949 14.78955761 74912"}}, "geometry": {"type": "Point", "coordinates": [-126.08676510141923, 24.299869832442784]}}, {"type": "Feature", "properties": {"norad_id": 41875, "name": "GOKTURK 1A", "group": "resource", "lat": -29.20226501392533, "lon": 61.1363233241452, "alt_km": 690.6644849690074, "timestamp": "2025-12-19T10:50:00.849196+00:00", "meta": {"OBJECT_NAME": "GOKTURK 1A", "OBJECT_ID": "2016-073A", "EPOCH": "2025-12-19T00:01:44.899968", "MEAN_MOTION": 14.627865, "ECCENTRICITY": 0.00012468, "INCLINATION": 98.1434, "RA_OF_ASC_NODE": 245.2827, "ARG_OF_PERICENTER": 80.119, "MEAN_ANOMALY": 280.0153, "EPHEMERIS_TYPE": 0, "CLASSIFICATION_TYPE": "U", "NORAD_CAT_ID": 41875, "ELEMENT_SET_NO": 999, "REV_AT_EPOCH": 48248, "BSTAR": 7.9252997e-05, "MEAN_MOTION_DOT": 3.57e-06, "MEAN_MOTION_DDOT": 0}, "tle": {"line1": "1 41875U 16073A   25353.00121412  .00000357  00000+0  79253-4 0  9995", "line2": "2 41875  98.1434 245.2827 0001246  80.1190 280.0153 14.62786500482482"}}, "geometry": {"type": "Point", "coordinates": [61.1363233241452, -29.20226501392533]}}, {"type": "Feature", "properties": {"norad_id": 41877, "name": "RESOURCESAT-2A", "group": "resource", "lat": -14.975587023457802, "lon": 65.63651362175597, "alt_km": 825.086638685797, "timestamp": "2025-12-19T10:50:00.849206+00:00", "meta": {"OBJECT_NAME": "RESOURCESAT-2A", "OBJECT_ID": "2016-074A", "EPOCH": "2025-12-18T23:04:49.425024", "MEAN_MOTION": 14.21602172, "ECCENTRICITY": 0.00013527, "INCLINATION": 98.7756, "RA_OF_ASC_NODE": 62.7816, "ARG_OF_PERICENTER": 225.1924, "MEAN_ANOMALY": 134.9144, "EPHEMERIS_TYPE": 0, "CLASSIFICATION_TYPE": "U", "NORAD_CAT_ID": 41877, "ELEMENT_SET_NO": 999, "REV_AT_EPOCH": 46869, "BSTAR": 9.8134365e-05, "MEAN_MOTION_DOT": 1.71e-06, "MEAN_MOTION_DDOT": 0}, "tle": {"line1": "1 41877U 16074A   25352.96168316  .00000171  00000+0  98134-4 0  9999", "line2": "2 41877  98.7756  62.7816 0001352 225.1924 134.9144 14.21602172468692"}}, "geometry": {"type": "Point", "coordinates": [65.63651362175597, -14.975587023457802]}}, {"type": "Feature", "properties": {"norad_id": 41948, "name": "CARTOSAT-2D", "group": "resource", "lat": -7.773140258508788, "lon": -130.17481241807977, "alt_km": 509.4495970106218, "timestamp": "2025-12-19T10:50:00.849216+00:00", "meta": {"OBJECT_NAME": "CARTOSAT-2D", "OBJECT_ID": "2017-008A", "EPOCH": "2025-12-18T22:56:44.245824", "MEAN_MOTION": 15.1931957, "ECCENTRICITY": 0.00051854, "INCLINATION": 97.4391, "RA_OF_ASC_NODE": 50.3593, "ARG_OF_PERICENTER": 143.2834, "MEAN_ANOMALY": 216.8757, "EPHEMERIS_TYPE": 0, "CLASSIFICATION_TYPE": "U", "NORAD_CAT_ID": 41948, "ELEMENT_SET_NO": 999, "REV_AT_EPOCH": 49021, "BSTAR": 0.00020878676, "MEAN_MOTION_DOT": 4.342e-05, "MEAN_MOTION_DDOT": 0}, "tle": {"line1": "1 41948U 17008A   25352.95606766  .00004342  00000+0  20879-3 0  9995", "line2": "2 41948  97.4391  50.3593 0005185 143.2834 216.8757 15.19319570490213"}}, "geometry": {"type": "Point", "coordinates": [-130.17481241807977, -7.773140258508788]}}, {"type": "Feature", "properties": {"norad_id": 42063, "name": "SENTINEL-2B", "group": "resource", "lat": 4.039622760966258, "lon": -113.58650042791513, "alt_km": 791.2536346273073, "timestamp": "2025-12-19T10:50:00.849226+00:00", "meta": {"OBJECT_NAME": "SENTINEL-2B", "OBJECT_ID": "2017-013A", "EPOCH": "2025-12-18T23:56:40.973280", "MEAN_MOTION": 14.30813508, "ECCENTRICITY": 0.0001176, "INCLINATION": 98.571, "RA_OF_ASC_NODE": 65.356, "ARG_OF_PERICENTER": 97.3865, "MEAN_ANOMALY": 262.7452, "EPHEMERIS_TYPE": 0, "CLASSIFICATION_TYPE": "U", "NORAD_CAT_ID": 42063, "ELEMENT_SET_NO": 999, "REV_AT_EPOCH": 45887, "BSTAR": 6.1408e-05, "MEAN_MOTION_DOT": 1.17e-06, "MEAN_MOTION_DDOT": 0}, "tle": {"line1": "1 42063U 17013A   25352.99769645  .00000117  00000+0  61408-4 0  9990", "line2": "2 42063  98.5710  65.3560 0001176  97.3865 262.7452 14.30813508458878"}}, "geometry": {"type": "Point", "coordinates": [-113.58650042791513, 4.039622760966258]}}, {"type": "Feature", "properties": {"norad_id": 42767, "name": "CARTOSAT-2E", "group": "resource", "lat": 79.7666148769526, "lon": -82.54736584974872, "alt_km": 501.237361092858, "timestamp": "2025-12-19T10:50:00.849236+00:00", "meta": {"OBJECT_NAME": "CARTOSAT-2E", "OBJECT_ID": "2017-036C", "EPOCH": "2025-12-18T23:20:34.448352", "MEAN_MOTION": 15.19257487, "ECCENTRICITY": 0.0002382, "INCLINATION": 97.4556, "RA_OF_ASC_NODE": 50.4784, "ARG_OF_PERICENTER": 207.6052, "MEAN_ANOMALY": 152.5057, "EPHEMERIS_TYPE": 0, "CLASSIFICATION_TYPE": "U", "NORAD_CAT_ID": 42767, "ELEMENT_SET_NO": 999, "REV_AT_EPOCH": 47078, "BSTAR": 0.00018813365, "MEAN_MOTION_DOT": 3.898e-05, "MEAN_MOTION_DDOT": 0}, "tle": {"line1": "1 42767U 17036C   25352.97262093  .00003898  00000+0  18813-3 0  9999", "line2": "2 42767  97.4556  50.4784 0002382 207.6052 152.5057 15.19257487470789"}}, "geometry": {"type": "Point", "coordinates": [-82.54736584974872, 79.7666148769526]}}, {"type": "Feature", "properties": {"norad_id": 42920, "name": "FORMOSAT-5", "group": "resource", "lat": -56.9226299999824, "lon": 80.4984412225896, "alt_km": 723.7945650985239, "timestamp": "2025-12-19T10:50:00.849246+00:00", "meta": {"OBJECT_NAME": "FORMOSAT-5", "OBJECT_ID": "2017-049A", "EPOCH": "2025-12-18T21:51:26.366112", "MEAN_MOTION": 14.50764159, "ECCENTRICITY": 0.00098476, "INCLINATION": 98.2447, "RA_OF_ASC_NODE": 67.1063, "ARG_OF_PERICENTER": 280.6246, "MEAN_ANOMALY": 79.384, "EPHEMERIS_TYPE": 0, "CLASSIFICATION_TYPE": "U", "NORAD_CAT_ID": 42920, "ELEMENT_SET_NO": 999, "REV_AT_EPOCH": 44053, "BSTAR": 5.5228878e-05, "MEAN_MOTION_DOT": 1.74e-06, "MEAN_MOTION_DDOT": 0}, "tle": {"line1": "1 42920U 17049A   25352.91072183  .00000174  00000+0  55229-4 0  9994", "line2": "2 42920  98.2447  67.1063 0009847 280.6246  79.3840 14.50764159440531"}}, "geometry": {"type": "Point", "coordinates": [80.4984412225896, -56.9226299999824]}}, {"type": "Feature", "properties": {"norad_id": 42969, "name": "SENTINEL-5P", "group": "resource", "lat": -58.099415457243666, "lon": -53.649046916887784, "alt_km": 834.6607352882256, "timestamp": "2025-12-19T10:50:00.849257+00:00", "meta": {"OBJECT_NAME": "SENTINEL-5P", "OBJECT_ID": "2017-064A", "EPOCH": "2025-12-18T19:53:13.522272", "MEAN_MOTION": 14.19519004, "ECCENTRICITY": 0.00010133, "INCLINATION": 98.7792, "RA_OF_ASC_NODE": 291.3589, "ARG_OF_PERICENTER": 90.03, "MEAN_ANOMALY": 270.0992, "EPHEMERIS_TYPE": 0, "CLASSIFICATION_TYPE": "U", "NORAD_CAT_ID": 42969, "ELEMENT_SET_NO": 999, "REV_AT_EPOCH": 42397, "BSTAR": 4.0106086e-05, "MEAN_MOTION_DOT": 4e-07, "MEAN_MOTION_DDOT": 0}, "tle": {"line1": "1 42969U 17064A   25352.82862873  .00000040  00000+0  40106-4 0  9997", "line2": "2 42969  98.7792 291.3589 0001013  90.0300 270.0992 14.19519004423976"}}, "geometry": {"type": "Point", "coordinates": [-53.649046916887784, -58.099415457243666]}}]}